"street","type","city","state","zip","expires","beds","baths","sq. ft.","util. paid","w/d","garage","rent","deposit","option to buy","virtual tour","application"
"127 felix street","sfh","georgetown","ky","40324","now","3","2","1232","-","h/u","2","$925","$925","yes","view tour            &nbsp;","&nbsp;"
"1352 royalty court #6","apt","lexington","ky","40504","now","2","1","725","water","h/u","n/a","$525","$525","no","view tour            &nbsp;","&nbsp;"
"467 johnson ave","sfh","lexington","ky","40508","now","2","1","1300","-","yes","none","$950","$950","no","view tour            &nbsp;","&nbsp;"
"1344 royalty court #4","apt","lexington","ky","40504","now","2","1","725","water","h/u","n/a","$525","$525","no","view tour            &nbsp;","&nbsp;"
"2076 patriot way","sfh","independence","ky","41051","2014/06/30","4","2.5","2300","-","h/u","2","$1595","$3000","yes","view tour            &nbsp;","&nbsp;"
"343 aylesford pl","sfh - campus","lexington","ky","40508","2013/07/31","7","3","2480","-","yes","n/a","$2500","$2500","no","view tour            &nbsp;","&nbsp;"
"1352 royalty court #1","apt","lexington","ky","40504","2013/02/28","1","1","675","water","h/u","n/a","$450","$450","no","view tour            &nbsp;","&nbsp;"
"627 sherard circle","duplex","lexington","ky","40517","2013/01/31","3","2.5","1400","-","yes","1","$850","$850","no","view tour            &nbsp;","&nbsp;"
"1352 royalty court #3","apt","lexington","ky","40504","2012/12/31","1","1","675","water","h/u","n/a","$450","$450","no","view tour            &nbsp;","&nbsp;"
"1352 royalty court #4","apt","lexington","ky","40504","2012/12/31","2","1","725","water","h/u","n/a","$525","$525","no","view tour            &nbsp;","&nbsp;"
"1352 royalty court #2","apt","lexington","ky","40504","2012/09/30","2","1","725","water","h/u","n/a","$525","$525","no","view tour            &nbsp;","&nbsp;"
"1344 royalty court #3","apt","lexington","ky","40504","2012/08/31","1","1","675","water","h/u","n/a","$450","$450","no","view tour            &nbsp;","&nbsp;"
"1344 royalty court #1","apt","lexington","ky","40504","2012/08/31","1","1","675","water","h/u","n/a","$450","$450","no","view tour            &nbsp;","&nbsp;"
"2829 jenna rst","sfh","lexington","ky","40511","2012/07/31","3","2","1850","-","h/u","2","$1350","$1350","yes","view tour            &nbsp;","&nbsp;"
"1344 royalty court #5","apt","lexington","ky","40504","2012/07/31","1","1","675","water","h/u","n/a","$450","$450","no","view tour            &nbsp;","&nbsp;"
"1352 royalty court #7","apt","lexington","ky","40504","2012/07/31","1","1","675","water","h/u","n/a","$450","$450","no","view tour            &nbsp;","&nbsp;"
"625 sherard circle","duplex","lexington","ky","40517","2012/07/31","3","2.5","1400","-","yes","1","$850","$850","no","view tour            &nbsp;","&nbsp;"
"1344 royalty court #7","apt","lexington","ky","40504","2012/07/31","1","1","675","water","h/u","n/a","$450","$450","no","view tour            &nbsp;","&nbsp;"
"1344 royalty court #8","apt","lexington","ky","40504","2012/07/31","2","1","725","water","h/u","n/a","$525","$525","no","view tour            &nbsp;","&nbsp;"
"119 pony place","sfh","georgetown","ky","40324","2012/06/30","3","2","1300","-","h/u","2 car","$975","$975","yes","&nbsp;","&nbsp;"
"451 dabney drive","twh","lexington","ky","40509","2012/06/30","2","2.5","1100","-","h/u","n/a","$695","$695","no","view tour            &nbsp;","&nbsp;"
"449 dabney drive","twh","lexington","ky","40509","2012/06/30","2","2.5","1100","-","h/u","n/a","$695","$695","no","view tour            &nbsp;","&nbsp;"
"445 dabney drive","twh","lexington","ky","40509","2012/06/30","3","2.5","1364","-","h/u","n/a","$795","$795","no","view tour            &nbsp;","&nbsp;"
"106 erica drive","sfh","georgetown","ky","40324","2012/06/30","3","2","1300","n/a","h/u","2 car","$925","$925","yes","view tour            &nbsp;","&nbsp;"
"1352 royalty court #5","apt","lexington","ky","40504","2012/06/30","1","1","675","water","h/u","n/a","$450","$450","no","view tour            &nbsp;","&nbsp;"
"1352 royalty court #8","apt","lexington","ky","40504","2012/05/31","2","1","725","water","h/u","n/a","$525","$525","no","view tour            &nbsp;","&nbsp;"
"1344 royalty court #2","apt","lexington","ky","40504","2012/05/31","2","1","725","water","h/u","n/a","$525","$525","no","view tour            &nbsp;","&nbsp;"
"107 erica drive","sfh","georgetown","ky","40324","2012/05/31","3","2.5","1451","-","h/u","2 car","$975","$975","yes","view tour            &nbsp;","&nbsp;"
"1344 royalty court #6","apt","lexington","ky","40504","2012/04/30","2","1","725","water","h/u","n/a","$525","$525","no","view tour            &nbsp;","&nbsp;"
"447 dabney drive","twh","lexington","ky","40509","2012/04/30","2","2.5","1100","-","h/u","n/a","$695","$695","no","view tour            &nbsp;","&nbsp;"
"124 yamacraw","sfh","lexington","ky","40511","2012/04/30","4","2","1780","-","h/u","2","$1195","$2000","yes","view tour            &nbsp;","&nbsp;"
"2825 jenna rst","sfh","lexington","ky","40511","2012/04/20","3","2","2250","-","h/u","2","$1395","$1395","yes","view tour            &nbsp;","&nbsp;"
"117 pony place","sfh","georgetown","ky","40324","2012/02/28","3","2.5","1550","-","h/u","2 car","$1050","$2000","yes","view tour            &nbsp;","&nbsp;"
